{
    "links": {
        "self": "http://www.neowsapp.com/rest/v1/neo/3840794?api_key=iIulBulltgU6a56xZRHN4H3l9WmuAYTsLGpBGhQ2"
    },
    "id": "3840794",
    "neo_reference_id": "3840794",
    "name": "(2019 GP1)",
    "designation": "2019 GP1",
    "nasa_jpl_url": "http://ssd.jpl.nasa.gov/sbdb.cgi?sstr=3840794",
    "absolute_magnitude_h": 26.0,
    "estimated_diameter": {
        "kilometers": {
            "estimated_diameter_min": 0.0167708462,
            "estimated_diameter_max": 0.0375007522
        },
        "meters": {
            "estimated_diameter_min": 16.7708462163,
            "estimated_diameter_max": 37.5007521798
        },
        "miles": {
            "estimated_diameter_min": 0.0104209175,
            "estimated_diameter_max": 0.0233018799
        },
        "feet": {
            "estimated_diameter_min": 55.0224631002,
            "estimated_diameter_max": 123.0339677816
        }
    },
    "is_potentially_hazardous_asteroid": false,
    "close_approach_data": [
        {
            "close_approach_date": "2019-03-27",
            "close_approach_date_full": "2019-Mar-27 15:42",
            "epoch_date_close_approach": 1553701320000,
            "relative_velocity": {
                "kilometers_per_second": "6.8990286789",
                "kilometers_per_hour": "24836.503244093",
                "miles_per_hour": "15432.4372518643"
            },
            "miss_distance": {
                "astronomical": "0.0848513624",
                "lunar": "33.0071799736",
                "kilometers": "12693583.081638088",
                "miles": "7887426.7820900944"
            },
            "orbiting_body": "Earth"
        },
        {
            "close_approach_date": "2024-03-22",
            "close_approach_date_full": "2024-Mar-22 11:28",
            "epoch_date_close_approach": 1711106880000,
            "relative_velocity": {
                "kilometers_per_second": "15.5869806399",
                "kilometers_per_hour": "56113.1303037372",
                "miles_per_hour": "34866.5169934527"
            },
            "miss_distance": {
                "astronomical": "0.4840528928",
                "lunar": "188.2965752992",
                "kilometers": "72413281.730218336",
                "miles": "44995526.7968555968"
            },
            "orbiting_body": "Earth"
        }
    ],
    "orbital_data": {
        "orbit_id": "3",
        "orbit_determination_date": "2019-04-11 08:04:44",
        "first_observation_date": "2019-04-03",
        "last_observation_date": "2019-04-10",
        "data_arc_in_days": 7,
        "observations_used": 15,
        "orbit_uncertainty": "8",
        "minimum_orbit_intersection": ".0847393",
        "jupiter_tisserand_invariant": "5.358",
        "epoch_osculation": "2458577.5",
        "eccentricity": ".1086425880344503",
        "semi_major_axis": "1.172301644666037",
        "inclination": "12.90556305877267",
        "ascending_node_longitude": "192.0292060629451",
        "orbital_period": "463.6150100469619",
        "perihelion_distance": "1.044939760032476",
        "perihelion_argument": "306.6851128033396",
        "aphelion_distance": "1.299663529299597",
        "perihelion_time": "2458520.400694489712",
        "mean_anomaly": "44.33797340086441",
        "mean_motion": ".776506351603098",
        "equinox": "J2000",
        "orbit_class": {
            "orbit_class_type": "AMO",
            "orbit_class_description": "Near-Earth asteroid orbits similar to that of 1221 Amor",
            "orbit_class_range": "1.017 AU < q (perihelion) < 1.3 AU"
        }
    },
    "is_sentry_object": false
}